INTELSAT 902 (IS-902)   
1 26900U 01039A   26185.14099701 -.00000274  00000+0  00000+0 0  9995
2 26900   6.1589  71.5754 0004288  29.8464 181.3792  1.00271305 90865
INTELSAT 904 (IS-904)   
1 27380U 02007A   26185.17261547 -.00000217  00000+0  00000+0 0  9993
2 27380   6.9595  68.9807 0006133  17.8107 226.0553  1.00270910 51932
DIRECTV 5 (TEMPO 1)     
1 27426U 02023A   26184.39558781 -.00000048  00000+0  00000+0 0  9996
2 27426   4.9166  75.1124 0003513  37.3501 201.2642  1.00271698 88287
INTELSAT 905 (IS-905)   
1 27438U 02027A   26184.76737028  .00000102  00000+0  00000+0 0  9997
2 27438   6.7923  69.6006 0003943  36.2187 315.0202  1.00272678 51525
GALAXY 3C (G-3C)        
1 27445U 02030A   26185.20341797 -.00000142  00000+0  00000+0 0  9998
2 27445   3.7740  77.7603 0001847  31.6931 151.1713  1.00271750 46662
INTELSAT 906 (IS-906)   
1 27513U 02041A   26185.23491074  .00000023  00000+0  00000+0 0  9990
2 27513   5.8447  72.7112 0004048  12.2630 345.9757  1.00270893 87193
GALAXY 13 (HORIZONS-1)  
1 27954U 03044A   26185.04997251  .00000144  00000+0  00000+0 0  9994
2 27954   1.4620  83.6474 0001713  16.6797  49.7047  1.00272934 46742
INTELSAT 10-02          
1 28358U 04022A   26185.22199734  .00000001  00000+0  00000+0 0  9992
2 28358   0.0397 261.8222 0000182 278.3876 180.9405  1.00270014 80721
DIRECTV 8               
1 28659U 05019A   26185.19865130  .00000000  00000+0  00000+0 0  9998
2 28659   0.0198  38.7782 0003250  79.7793 116.1235  1.00269824 77248
GALAXY 28 (G-28)        
1 28702U 05022A   26183.79109625 -.00000191  00000+0  00000+0 0  9997
2 28702   3.3367  78.7516 0002601  16.9040  82.8679  1.00270423 52136
GALAXY 16 (G-16)        
1 29236U 06023A   26185.20263797 -.00000115  00000+0  00000+0 0  9997
2 29236   0.0257 135.6290 0002673 324.4587 156.0812  1.00271531 73143
DIRECTV 9S              
1 29494U 06043A   26185.20220464 -.00000102  00000+0  00000+0 0  9995
2 29494   2.4619  80.7060 0005313  25.5685 147.5399  1.00271693 51559
GALAXY 17 (G-17)        
1 31307U 07016B   26185.13410458 -.00000195  00000+0  00000+0 0  9990
2 31307   3.0119  79.6949 0003934  23.6259 142.0889  1.00270503 69971
INTELSAT 11 (IS-11)     
1 32253U 07044B   26185.16101712  .00000087  00000+0  00000+0 0  9994
2 32253   3.6067  78.4705 0003590  91.2482 221.5377  0.99048388 68610
HORIZONS-2              
1 32388U 07063B   26185.20761060 -.00000243  00000+0  00000+0 0  9992
2 32388   2.6432  80.4263 0004019  10.4294 192.2991  1.00273726 67981
DIRECTV 11              
1 32729U 08013A   26183.63418661 -.00000115  00000+0  00000+0 0  9996
2 32729   0.0453 203.0643 0000434 233.2983 333.4381  1.00270031 45745
GALAXY 18 (G-18)        
1 32951U 08024A   26185.19787128  .00000037  00000+0  00000+0 0  9997
2 32951   0.0173  69.8549 0003121  40.7727 119.8191  1.00272315 46021
GALAXY 19 (G-19)        
1 33376U 08045A   26185.20298464 -.00000127  00000+0  00000+0 0  9995
2 33376   0.0468 245.1739 0002909 235.5078 137.6037  1.00271177 65074
FM-5                    
1 35493U 09034A   26183.77931601 -.00000189  00000+0  00000+0 0  9991
2 35493   0.0343 275.0250 0000963  71.7322 128.4433  1.00271535 46804
INTELSAT 14 (IS-14)     
1 36097U 09064A   26185.21333064 -.00000261  00000+0  00000+0 0  9996
2 36097   0.0165 308.2216 0002561 154.3032 211.5094  1.00272971 60774
INTELSAT 15 (IS-15)     
1 36106U 09067A   26185.09697672 -.00000173  00000+0  00000+0 0  9996
2 36106   0.0186   1.2974 0002437 103.9383 296.9384  1.00272413 41397
DIRECTV 12              
1 36131U 09075A   26183.63349326 -.00000092  00000+0  00000+0 0  9991
2 36131   0.0418 186.0830 0000293 277.3252 302.5946  1.00269592 46707
INTELSAT 16 (IS-16)     
1 36397U 10006A   26185.20717727 -.00000233  00000+0  00000+0 0  9997
2 36397   0.0103  31.4154 0002431  89.6972 159.4980  1.00271885 59825
XM-5                    
1 37185U 10053A   26183.85406361 -.00000012  00000+0  00000+0 0  9998
2 37185   0.0667 268.1133 0002415 288.6084 276.4302  1.00271810 57643
INTELSAT 17 (IS-17)     
1 37238U 10065B   26185.16396380  .00000000  00000+0  00000+0 0  9991
2 37238   0.0359  87.1472 0002656  35.7722 284.2640  1.00271947 53416
INTELSAT 28 (IS-28)     
1 37392U 11016A   26185.20629615 -.00000214  00000+0  00000+0 0  9992
2 37392   1.8475  82.4255 0003877  24.0080 218.3118  1.00271563 53452
INTELSAT 18 (IS-18)     
1 37834U 11056A   26185.18661675  .00000065  00000+0  00000+0 0  9999
2 37834   0.0240 284.2528 0001985 185.5492  59.5740  1.00271797 53980
INTELSAT 22 (IS-22)     
1 38098U 12011A   26185.16517714 -.00000046  00000+0  00000+0 0  9996
2 38098   0.0198  52.0862 0001701  47.4186 314.2257  1.00271362  7351
INTELSAT 19 (IS-19)     
1 38356U 12030A   26185.18384340 -.00000045  00000+0  00000+0 0  9992
2 38356   0.0191  28.3682 0003332  84.6538  41.3584  1.00271588 50622
INTELSAT 20 (IS-20)     
1 38740U 12043A   26185.09323829 -.00000012  00000+0  00000+0 0  9992
2 38740   0.0072  61.0631 0001217 120.4399 202.6599  1.00270704 50918
INTELSAT 21 (IS-21)     
1 38749U 12045A   26185.21073061 -.00000273  00000+0  00000+0 0  9996
2 38749   0.0232 287.4228 0001870 190.4986 182.1747  1.00271942 50692
INTELSAT 23 (IS-23)     
1 38867U 12057A   26185.24824108 -.00000273  00000+0  00000+0 0  9999
2 38867   0.0169  22.9185 0000490 190.6238 105.0391  1.00266443 50122
FM-6                    
1 39360U 13058A   26183.70211649 -.00000005  00000+0  00000+0 0  9992
2 39360   0.0160  40.7600 0001960 138.6453 237.7772  1.00271889 46228
INTELSAT 30 (IS-30)     
1 40271U 14062A   26183.56378632 -.00000141  00000+0  00000+0 0  9992
2 40271   0.0214  49.9436 0001444 357.0524 341.5175  1.00277454  6942
DIRECTV 14              
1 40333U 14078B   26183.42034461 -.00000115  00000+0  00000+0 0  9993
2 40333   0.0102  26.2148 0000293   2.4668 303.8682  1.00271936 42196
DIRECTV 15              
1 40663U 15026A   26183.70471650 -.00000091  00000+0  00000+0 0  9992
2 40663   0.0175  66.4844 0000483 341.1134  23.9506  1.00269040 40616
SKY MEXICO-1            
1 40664U 15026B   26185.20665727 -.00000223  00000+0  00000+0 0  9997
2 40664   0.0137  60.9669 0002491  59.3813 157.4752  1.00272767 40629
INTELSAT 34 (IS-34)     
1 40874U 15039A   26183.57149969 -.00000275  00000+0  00000+0 0  9994
2 40874   0.0108  13.9056 0000469  22.0921  34.8455  1.00269667 39786
INTELSAT 31 (IS-31)     
1 41581U 16035A   26183.56378632 -.00000141  00000+0  00000+0 0  9999
2 41581   0.0275 259.9848 0000566 356.1386 132.3882  1.00274605 36831
INTELSAT 36 (IS-36)     
1 41747U 16053A   26183.82701009 -.00000013  00000+0  00000+0 0  9998
2 41747   0.0098  12.9079 0002007 336.4355 297.7405  1.00270238 36116
INTELSAT 32E (IS-32E)   
1 41945U 17007B   26183.43143799  .00000000  00000+0  00000+0 0  9996
2 41945   0.0218  28.0694 0000954 325.1520  39.3916  1.00263397 34370
INTELSAT 35E (IS-35E)   
1 42818U 17041A   26185.19198001 -.00000226  00000+0  00000+0 0  9996
2 42818   0.0187  41.3980 0001936  57.2240 218.2019  1.00273425 32984
INTELSAT 37E (IS-37E)   
1 42950U 17059A   26185.21861733 -.00000129  00000+0  00000+0 0  9996
2 42950   0.0186  39.2814 0002794  64.2124 239.4448  1.00272747 32239
AZERSPACE 2 (IS-38)     
1 43632U 18074A   26183.80536772  .00000000  00000+0  00000+0 0  9994
2 43632   0.0228  36.6472 0001885  74.6484 144.5914  1.00276723 28607
HORIZONS-3E             
1 43633U 18074B   26183.68738308 -.00000020  00000+0  00000+0 0  9993
2 43633   0.0166 197.9110 0000602  85.7941  53.4880  1.00271230 28491
AT&T T-16               
1 44333U 19034A   26183.70480317 -.00000104  00000+0  00000+0 0  9998
2 44333   0.0156  62.5128 0000629 281.1843  89.9134  1.00271130 25780
INTELSAT 39 (IS-39)     
1 44476U 19049B   26183.86988079  .00000000  00000+0  00000+0 0  9991
2 44476   0.0212  29.7717 0000592 309.6573 316.5859  1.00268633 25287
GALAXY 30 (G-30)        
1 46114U 20056C   26185.19743795  .00000000  00000+0  00000+0 0  9994
2 46114   0.0217  36.3001 0002019  70.3779 121.6188  1.00271608 21461
GALAXY 33 (G-33)        
1 54026U 22128A   26185.19587795  .00000091  00000+0  00000+0 0  9993
2 54026   0.0158  52.4339 0002005  46.4037 120.8896  1.00271262 13919
GALAXY 34 (G-34)        
1 54027U 22128B   26183.85030604  .00000070  00000+0  00000+0 0  9994
2 54027   0.0130  31.8533 0001955  68.7137 357.4298  1.00268570 14078
GALAXY 31 (G-31)        
1 54243U 22153A   26185.19821795  .00000025  00000+0  00000+0 0  9990
2 54243   0.0192  89.3122 0001477  13.3982 129.8548  1.00272292  7304
GALAXY 32 (G-32)        
1 54244U 22153B   26183.56456632 -.00000164  00000+0  00000+0 0  9999
2 54244   0.0105  15.3279 0001988  35.2758 342.2488  1.00272409 13291
GALAXY 35 (G-35)        
1 54741U 22170A   26185.20376464 -.00000150  00000+0  00000+0 0  9992
2 54741   0.0135  81.9105 0002224  22.2962 158.2627  1.00272510 13068
GALAXY 36 (G-36)        
1 54742U 22170B   26185.13332458 -.00000173  00000+0  00000+0 0  9995
2 54742   0.0052 135.7055 0002824 319.0440 146.3986  1.00272006 12945
GALAXY 37 (G-37)        
1 57493U 23112A   26185.19709128  .00000000  00000+0  00000+0 0  9994
2 57493   0.0198  28.1175 0001949  83.2785 114.7693  1.00270276 10713
